<?xml version="1.0" encoding="UTF-8"?>
<kml xmlns="http://www.opengis.net/kml/2.2"><Document>
<name>Kirghizistan - Almaty, 5-26 septembre 2026</name>
<description>Traverse Bichkek - Almaty : routes reelles (OSRM/OSM), treks et nuits. Genere le 2026-08-01.</description>
<Style id="road"><LineStyle><color>ffB0561E</color><width>4</width></LineStyle></Style>
<Style id="trek"><LineStyle><color>ff337A1F</color><width>5</width></LineStyle></Style>
<Style id="night"><IconStyle><color>ff2F76B5</color><scale>1.0</scale></IconStyle></Style>
<Folder><name>Segments vehicule (traces routiers reels)</name>
<Placemark><name>J2 - Marshrutka Bichkek - Cholpon-Ata (Nomad Games) (~266 km)</name><styleUrl>#road</styleUrl><LineString><tessellate>1</tessellate><coordinates>74.5704,42.8744,0 74.5761,42.8771,0 74.5763,42.8852,0 74.5747,42.8954,0 74.5738,42.9039,0 74.5732,42.9137,0 74.5722,42.9216,0 74.5680,42.9451,0 74.5850,42.9501,0 74.5918,42.9504,0 74.6198,42.9485,0 74.6423,42.9425,0 74.6909,42.9305,0 74.7209,42.9193,0 74.7602,42.9238,0 74.7758,42.9436,0 74.8422,42.9676,0 74.8812,42.9759,0 74.9013,42.9712,0 74.9498,42.9509,0 74.9739,42.9395,0 75.0035,42.9302,0 75.0276,42.9219,0 75.0509,42.9173,0 75.0882,42.9094,0 75.1277,42.8877,0 75.1571,42.8797,0 75.2013,42.8599,0 75.2301,42.8519,0 75.2671,42.8587,0 75.2907,42.8575,0 75.3111,42.8524,0 75.3699,42.8452,0 75.4646,42.8300,0 75.5392,42.8280,0 75.5506,42.8238,0 75.6062,42.8121,0 75.6403,42.8050,0 75.6835,42.7938,0 75.6986,42.7903,0 75.7282,42.7836,0 75.7692,42.7718,0 75.7800,42.7684,0 75.8076,42.7677,0 75.8267,42.7548,0 75.8343,42.7415,0 75.8522,42.7146,0 75.8737,42.6945,0 75.8914,42.6811,0 75.8917,42.6695,0 75.8851,42.6611,0 75.8797,42.6520,0 75.8641,42.6451,0 75.8508,42.6371,0 75.8313,42.6265,0 75.8253,42.6171,0 75.8181,42.6094,0 75.8137,42.5956,0 75.8051,42.5777,0 75.8183,42.5608,0 75.8140,42.5445,0 75.8299,42.5130,0 75.8430,42.4970,0 75.8600,42.4879,0 75.8746,42.4737,0 75.9021,42.4683,0 75.9329,42.4645,0 75.9593,42.4709,0 75.9776,42.4699,0 76.0121,42.4633,0 76.0952,42.4584,0 76.1549,42.4547,0 76.1640,42.4528,0 76.1840,42.4541,0 76.2099,42.4611,0 76.2300,42.4685,0 76.2965,42.4899,0 76.3904,42.4883,0 76.4713,42.5020,0 76.5449,42.5155,0 76.6048,42.5305,0 76.6345,42.5578,0 76.6642,42.5668,0 76.7139,42.5805,0 76.7573,42.5936,0 76.8164,42.5973,0 76.8792,42.5993,0 76.9132,42.6062,0 76.9680,42.6171,0 77.0050,42.6300,0 77.0517,42.6395,0 77.0652,42.6417,0 77.0786,42.6469,0 77.0832,42.6487,0</coordinates></LineString></Placemark>
<Placemark><name>J3 - Cholpon-Ata - Kochkor (~138 km)</name><styleUrl>#road</styleUrl><LineString><tessellate>1</tessellate><coordinates>77.0832,42.6487,0 77.0802,42.6475,0 77.0735,42.6450,0 77.0687,42.6432,0 77.0643,42.6413,0 77.0565,42.6399,0 77.0528,42.6397,0 77.0435,42.6390,0 77.0270,42.6362,0 77.0122,42.6329,0 76.9965,42.6261,0 76.9860,42.6215,0 76.9710,42.6181,0 76.9528,42.6130,0 76.9293,42.6084,0 76.9120,42.6060,0 76.8980,42.6041,0 76.8934,42.6030,0 76.8713,42.5984,0 76.8483,42.5973,0 76.8307,42.5972,0 76.7895,42.5987,0 76.7573,42.5936,0 76.7460,42.5878,0 76.7343,42.5844,0 76.7099,42.5798,0 76.6789,42.5712,0 76.6711,42.5687,0 76.6666,42.5675,0 76.6581,42.5653,0 76.6482,42.5629,0 76.6270,42.5550,0 76.6179,42.5459,0 76.6113,42.5354,0 76.5903,42.5202,0 76.5779,42.5163,0 76.5436,42.5156,0 76.5060,42.5104,0 76.4838,42.5071,0 76.4363,42.4931,0 76.4189,42.4910,0 76.3904,42.4883,0 76.3606,42.4919,0 76.3215,42.4932,0 76.2857,42.4884,0 76.2387,42.4717,0 76.2299,42.4686,0 76.2167,42.4636,0 76.2104,42.4612,0 76.2076,42.4602,0 76.1953,42.4565,0 76.1855,42.4544,0 76.1715,42.4514,0 76.1663,42.4524,0 76.1629,42.4531,0 76.1615,42.4536,0 76.1611,42.4531,0 76.1556,42.4484,0 76.1398,42.4352,0 76.1046,42.4061,0 76.0981,42.3891,0 76.0944,42.3795,0 76.0809,42.3711,0 76.0775,42.3688,0 76.0716,42.3674,0 76.0572,42.3590,0 76.0602,42.3555,0 76.0871,42.3389,0 76.1019,42.3146,0 76.0984,42.2921,0 76.0925,42.2887,0 76.0534,42.2933,0 76.0093,42.2950,0 75.9735,42.2936,0 75.9588,42.2919,0 75.9348,42.2949,0 75.9148,42.2985,0 75.8951,42.3071,0 75.8846,42.3061,0 75.8788,42.3013,0 75.8744,42.2960,0 75.8683,42.2915,0 75.8638,42.2858,0 75.8561,42.2808,0 75.8535,42.2708,0 75.8468,42.2599,0 75.8316,42.2459,0 75.8180,42.2390,0 75.7980,42.2315,0 75.7820,42.2260,0 75.7714,42.2219,0 75.7636,42.2188,0 75.7555,42.2161,0</coordinates></LineString></Placemark>
<Placemark><name>J4 - Kochkor - Kyzart (depart trek a cheval) (~43 km)</name><styleUrl>#road</styleUrl><LineString><tessellate>1</tessellate><coordinates>75.7555,42.2161,0 75.7535,42.2152,0 75.7478,42.2139,0 75.7448,42.2132,0 75.7415,42.2124,0 75.7357,42.2111,0 75.7321,42.2103,0 75.7281,42.2093,0 75.7256,42.2088,0 75.7250,42.2086,0 75.7245,42.2083,0 75.7241,42.2081,0 75.7225,42.2069,0 75.7123,42.1998,0 75.6977,42.1895,0 75.6972,42.1892,0 75.6950,42.1877,0 75.6947,42.1876,0 75.6944,42.1875,0 75.6941,42.1874,0 75.6933,42.1874,0 75.6894,42.1883,0 75.6869,42.1889,0 75.6859,42.1890,0 75.6852,42.1891,0 75.6840,42.1891,0 75.6771,42.1888,0 75.6657,42.1883,0 75.6646,42.1886,0 75.6617,42.1898,0 75.6599,42.1905,0 75.6584,42.1908,0 75.6567,42.1910,0 75.6547,42.1913,0 75.6526,42.1916,0 75.6494,42.1922,0 75.6304,42.1954,0 75.6181,42.1976,0 75.6172,42.1976,0 75.6063,42.1937,0 75.5955,42.1897,0 75.5940,42.1892,0 75.5913,42.1885,0 75.5759,42.1872,0 75.5697,42.1877,0 75.5631,42.1886,0 75.5523,42.1928,0 75.5502,42.1935,0 75.5482,42.1938,0 75.5441,42.1942,0 75.5429,42.1943,0 75.5423,42.1943,0 75.5160,42.1919,0 75.4832,42.189,0 75.4801,42.1885,0 75.4785,42.1883,0 75.4767,42.1881,0 75.4747,42.1880,0 75.4740,42.1880,0 75.4724,42.1880,0 75.4707,42.1878,0 75.4598,42.1854,0 75.4573,42.1848,0 75.4510,42.1829,0 75.4451,42.1815,0 75.4333,42.1763,0 75.4220,42.1733,0 75.4215,42.1733,0 75.4206,42.1732,0 75.4199,42.1733,0 75.4183,42.1734,0 75.4169,42.1732,0 75.4148,42.1729,0 75.4132,42.1725,0 75.4112,42.1718,0 75.4033,42.1680,0 75.3946,42.1638,0 75.3928,42.1633,0 75.3916,42.1630,0 75.39,42.1626,0 75.3893,42.1625,0 75.3870,42.1620,0 75.3825,42.1606,0 75.3814,42.1602,0 75.3791,42.1598,0 75.3770,42.1595,0 75.3736,42.1587,0 75.3707,42.1583,0 75.3692,42.1580,0 75.3670,42.1573,0 75.3628,42.1562,0 75.3610,42.1557,0 75.3598,42.1552,0 75.3590,42.1547,0 75.3581,42.1538,0 75.3573,42.1532,0 75.3560,42.1526,0 75.3549,42.1521,0 75.3523,42.1510,0 75.3493,42.1496,0 75.3465,42.1483,0 75.3447,42.1475,0 75.3432,42.1467,0 75.3404,42.1453,0 75.3379,42.1440,0 75.3354,42.1428,0 75.3334,42.1419,0 75.3310,42.1410,0 75.3296,42.1405,0 75.3282,42.1401,0 75.3258,42.1395,0 75.3239,42.1389,0 75.3208,42.1380,0 75.3189,42.1376,0 75.3167,42.1372,0 75.3148,42.1369,0 75.3117,42.1365,0 75.3088,42.1361,0 75.3036,42.1354,0 75.3007,42.1350,0 75.2966,42.1344,0 75.2930,42.1339,0 75.2905,42.1334,0 75.2889,42.1330,0 75.2868,42.1324,0 75.2841,42.1316,0 75.2817,42.1308,0 75.2796,42.1302,0 75.2782,42.1298,0 75.2773,42.1296,0</coordinates></LineString></Placemark>
<Placemark><name>J7 - Song-Kul - col Moldo-Ashuu (33 lacets) - Naryn (~170 km)</name><styleUrl>#road</styleUrl><LineString><tessellate>1</tessellate><coordinates>75.1275,41.9167,0 75.1392,41.9144,0 75.1515,41.9163,0 75.1614,41.9133,0 75.1713,41.9095,0 75.1826,41.9047,0 75.1921,41.9026,0 75.1956,41.8993,0 75.2060,41.8931,0 75.2420,41.8730,0 75.2613,41.8605,0 75.2767,41.8593,0 75.3000,41.8515,0 75.3199,41.8548,0 75.3376,41.8602,0 75.3629,41.8569,0 75.3776,41.8401,0 75.3917,41.8080,0 75.3767,41.7641,0 75.3735,41.7621,0 75.3284,41.7698,0 75.2423,41.7539,0 75.1890,41.7580,0 75.1410,41.7619,0 75.1216,41.7578,0 75.1264,41.7581,0 75.1642,41.7587,0 75.2286,41.7594,0 75.3174,41.7705,0 75.3658,41.7633,0 75.3734,41.7553,0 75.3894,41.7486,0 75.3953,41.7426,0 75.4030,41.7373,0 75.4160,41.7383,0 75.4235,41.7359,0 75.4285,41.7319,0 75.4300,41.7323,0 75.4320,41.7316,0 75.4349,41.7319,0 75.4380,41.7314,0 75.4406,41.7312,0 75.4422,41.7305,0 75.4428,41.7315,0 75.4480,41.7319,0 75.4491,41.7310,0 75.4509,41.7318,0 75.4575,41.7285,0 75.4731,41.7243,0 75.4854,41.7169,0 75.4965,41.7081,0 75.5048,41.7024,0 75.5189,41.6992,0 75.5446,41.6965,0 75.5663,41.6919,0 75.5952,41.6812,0 75.5978,41.6823,0 75.6008,41.6852,0 75.6057,41.6858,0 75.6166,41.6834,0 75.6289,41.6817,0 75.6346,41.6831,0 75.6355,41.6849,0 75.6399,41.6855,0 75.6539,41.6859,0 75.6599,41.6870,0 75.6610,41.6912,0 75.6665,41.6961,0 75.6869,41.6974,0 75.6971,41.6973,0 75.7105,41.6984,0 75.7187,41.7214,0 75.7210,41.7162,0 75.7399,41.6933,0 75.7707,41.6873,0 75.7923,41.6782,0 75.8071,41.6687,0 75.8189,41.6564,0 75.8420,41.6378,0 75.8485,41.6130,0 75.8699,41.5792,0 75.8698,41.5667,0 75.8928,41.5501,0 75.9164,41.5364,0 75.9674,41.5042,0 75.9804,41.4845,0 75.9717,41.4558,0 75.9606,41.4389,0 75.9555,41.4358,0 75.9514,41.4312,0 75.9492,41.4270,0 75.9594,41.4261,0 75.9680,41.4260,0 75.9832,41.4270,0 75.9902,41.4278,0 75.9910,41.4279,0</coordinates></LineString></Placemark>
<Placemark><name>J8 - Charter 1/3 : Naryn - Tash Rabat (~115 km)</name><styleUrl>#road</styleUrl><LineString><tessellate>1</tessellate><coordinates>75.9910,41.4279,0 75.9957,41.4283,0 76.0018,41.4281,0 76.0095,41.4266,0 76.0124,41.4252,0 76.0115,41.4237,0 76.0097,41.4217,0 76.0082,41.4150,0 76.0087,41.4106,0 76.0095,41.4067,0 76.0095,41.4043,0 76.0104,41.4021,0 76.0117,41.3980,0 76.0125,41.3956,0 76.0125,41.3917,0 76.0110,41.3875,0 76.0100,41.3884,0 76.0088,41.3901,0 76.0076,41.3886,0 76.0041,41.3863,0 75.9987,41.3857,0 75.9945,41.3832,0 75.9930,41.3816,0 75.9886,41.3803,0 75.9835,41.3799,0 75.9841,41.3777,0 75.9939,41.3724,0 75.9993,41.3709,0 76.0044,41.3688,0 76.0100,41.3617,0 76.0149,41.3582,0 76.0225,41.3532,0 76.0231,41.3506,0 76.0229,41.3476,0 76.0243,41.3435,0 76.0254,41.3398,0 76.0348,41.3349,0 76.0435,41.3272,0 76.0428,41.3219,0 76.0389,41.3221,0 76.0347,41.3199,0 76.0332,41.3148,0 76.0298,41.3105,0 76.0202,41.3042,0 76.0035,41.2917,0 75.9809,41.2743,0 75.9371,41.2453,0 75.8985,41.2216,0 75.8639,41.2035,0 75.7964,41.1884,0 75.7720,41.1890,0 75.7556,41.1937,0 75.7421,41.2000,0 75.7331,41.1998,0 75.7261,41.1856,0 75.7018,41.1656,0 75.6829,41.1404,0 75.6766,41.1327,0 75.6680,41.1289,0 75.5999,41.1002,0 75.5817,41.0923,0 75.4290,41.0275,0 75.3100,40.9704,0 75.2730,40.9423,0 75.2781,40.9376,0 75.2789,40.9355,0 75.2761,40.9248,0 75.2680,40.9089,0 75.2658,40.9024,0 75.2647,40.9014,0 75.2622,40.8929,0 75.2636,40.8891,0 75.2654,40.8845,0 75.2667,40.8809,0 75.2693,40.8790,0 75.2708,40.8771,0 75.2738,40.8719,0 75.2742,40.8696,0 75.2775,40.8661,0 75.2773,40.8641,0 75.2770,40.8595,0 75.2795,40.8532,0 75.2814,40.8508,0 75.2828,40.8485,0 75.2855,40.8458,0 75.2876,40.8442,0 75.2896,40.8423,0 75.2916,40.8410,0 75.2945,40.8387,0 75.2967,40.8356,0 75.2974,40.8309,0 75.2941,40.8281,0 75.2926,40.8265,0 75.2915,40.8254,0 75.2898,40.8241,0 75.2889,40.8224,0 75.2852,40.8228,0 75.2840,40.8229,0</coordinates></LineString></Placemark>
<Placemark><name>J9 - Charter 2/3 : Tash Rabat - Kok-Kyya (Kel-Suu) (~254 km)</name><styleUrl>#road</styleUrl><LineString><tessellate>1</tessellate><coordinates>75.2840,40.8229,0 75.2898,40.8241,0 75.2928,40.8271,0 75.2968,40.8352,0 75.2903,40.8417,0 75.2858,40.8453,0 75.2810,40.8509,0 75.2776,40.8619,0 75.2742,40.8696,0 75.2701,40.8776,0 75.2657,40.8837,0 75.2632,40.8962,0 75.2670,40.9059,0 75.2789,40.9362,0 75.2991,40.9652,0 75.5817,41.0923,0 75.6724,41.1308,0 75.7002,41.1644,0 75.7340,41.2001,0 75.7670,41.1891,0 75.8647,41.2037,0 75.9713,41.2679,0 76.0202,41.3042,0 76.0330,41.3170,0 76.0425,41.3216,0 76.0478,41.3221,0 76.0758,41.3050,0 76.0998,41.2996,0 76.1184,41.2653,0 76.1308,41.2505,0 76.2043,41.2376,0 76.2506,41.2360,0 76.2844,41.2371,0 76.3355,41.2519,0 76.3596,41.2510,0 76.3866,41.2479,0 76.4124,41.2399,0 76.4384,41.2398,0 76.4586,41.2301,0 76.4538,41.2184,0 76.4562,41.2036,0 76.4578,41.1908,0 76.4535,41.1812,0 76.4538,41.1795,0 76.4507,41.1743,0 76.4504,41.1734,0 76.4472,41.1699,0 76.4466,41.1686,0 76.4459,41.1660,0 76.4468,41.1593,0 76.4483,41.1593,0 76.4457,41.1549,0 76.4423,41.1464,0 76.4374,41.1246,0 76.4363,41.1005,0 76.4420,41.0833,0 76.4523,41.0583,0 76.4413,41.0545,0 76.4235,41.0460,0 76.4158,41.0026,0 76.4163,40.9624,0 76.4286,40.9204,0 76.3950,40.8972,0 76.3694,40.8970,0 76.3617,40.8948,0 76.3594,40.8868,0 76.2538,40.8628,0 76.1808,40.8480,0 76.1787,40.8354,0 76.1801,40.8311,0 76.1804,40.8259,0 76.1813,40.8200,0 76.1814,40.8135,0 76.1848,40.7915,0 76.1852,40.7621,0 76.1926,40.7251,0 76.1882,40.7102,0 76.1822,40.7000,0 76.1651,40.6956,0 76.1560,40.6872,0 76.1413,40.6765,0 76.1292,40.6504,0 76.1238,40.6335,0 76.1081,40.6291,0 76.0838,40.6232,0 76.0862,40.5897,0 76.0954,40.5806,0 76.1067,40.5689,0 76.1023,40.5530,0 76.1274,40.5281,0 76.1551,40.5177,0 76.1565,40.5157,0</coordinates></LineString></Placemark>
<Placemark><name>J10 - Charter 3/3 : retour Naryn (~175 km)</name><styleUrl>#road</styleUrl><LineString><tessellate>1</tessellate><coordinates>76.1565,40.5157,0 76.1318,40.5275,0 76.1076,40.5451,0 76.1054,40.5606,0 76.1012,40.5735,0 76.0884,40.5832,0 76.0811,40.5980,0 76.0841,40.6258,0 76.1081,40.6291,0 76.1223,40.6339,0 76.1257,40.6455,0 76.1316,40.6600,0 76.1490,40.6830,0 76.1616,40.6908,0 76.1691,40.6966,0 76.1877,40.7005,0 76.1875,40.7110,0 76.1928,40.7244,0 76.1870,40.7576,0 76.1841,40.7870,0 76.1826,40.8061,0 76.1810,40.8164,0 76.1811,40.8215,0 76.1802,40.8270,0 76.1802,40.8319,0 76.1787,40.8354,0 76.1800,40.8474,0 76.2257,40.8593,0 76.3581,40.8856,0 76.3610,40.8887,0 76.3606,40.8971,0 76.3727,40.8962,0 76.4253,40.9020,0 76.4278,40.9219,0 76.4164,40.9607,0 76.4154,40.9949,0 76.4162,41.0344,0 76.4366,41.0520,0 76.4461,41.0555,0 76.4491,41.0700,0 76.4426,41.0854,0 76.4353,41.1058,0 76.4374,41.1246,0 76.4414,41.1450,0 76.4452,41.1541,0 76.4471,41.1583,0 76.4490,41.1598,0 76.4459,41.1625,0 76.4453,41.1649,0 76.4465,41.1686,0 76.4473,41.1701,0 76.4505,41.1733,0 76.4508,41.1742,0 76.4511,41.1756,0 76.4560,41.1830,0 76.4565,41.1892,0 76.4561,41.1903,0 76.4566,41.2043,0 76.4538,41.2190,0 76.4586,41.2301,0 76.4404,41.2397,0 76.4234,41.2395,0 76.3974,41.2447,0 76.3789,41.2487,0 76.3543,41.2511,0 76.3249,41.2490,0 76.2794,41.2373,0 76.2478,41.2358,0 76.2072,41.2372,0 76.1343,41.2496,0 76.1241,41.2606,0 76.1199,41.2842,0 76.0853,41.3034,0 76.0619,41.3065,0 76.0467,41.3232,0 76.0390,41.3322,0 76.0242,41.3429,0 76.0231,41.3506,0 76.0143,41.3586,0 76.0037,41.3700,0 75.9897,41.3757,0 75.9863,41.3801,0 75.9942,41.3826,0 76.0037,41.3862,0 76.0088,41.3901,0 76.0110,41.3885,0 76.0124,41.3961,0 76.0100,41.4029,0 76.0097,41.4082,0 76.0095,41.4212,0 76.0077,41.4271,0 75.9920,41.4280,0 75.9910,41.4279,0</coordinates></LineString></Placemark>
<Placemark><name>J11 - Naryn - col Dolon - Bokonbaevo (~238 km)</name><styleUrl>#road</styleUrl><LineString><tessellate>1</tessellate><coordinates>75.9910,41.4279,0 75.9778,41.4268,0 75.9618,41.4259,0 75.9492,41.4273,0 75.9545,41.4347,0 75.9607,41.4392,0 75.9734,41.4642,0 75.9701,41.5008,0 75.9069,41.5395,0 75.8758,41.5583,0 75.8696,41.5818,0 75.8460,41.6269,0 75.8182,41.6572,0 75.8004,41.6738,0 75.7733,41.6855,0 75.7273,41.6986,0 75.7210,41.7343,0 75.7203,41.7438,0 75.7294,41.7653,0 75.7363,41.7719,0 75.7421,41.7829,0 75.7483,41.7918,0 75.7571,41.8000,0 75.7604,41.8056,0 75.7732,41.8212,0 75.7757,41.8236,0 75.7711,41.8237,0 75.7656,41.8290,0 75.7577,41.8341,0 75.7540,41.8391,0 75.7490,41.8413,0 75.7435,41.8401,0 75.7415,41.8427,0 75.7346,41.8460,0 75.7296,41.8558,0 75.7271,41.8604,0 75.7278,41.8702,0 75.7210,41.8790,0 75.7117,41.8825,0 75.7268,41.8898,0 75.7372,41.8968,0 75.7421,41.9116,0 75.7376,41.9328,0 75.7544,41.9484,0 75.7549,41.9584,0 75.7560,41.9669,0 75.7464,41.9752,0 75.7306,41.9817,0 75.7182,41.9889,0 75.7077,42.0014,0 75.6947,42.0201,0 75.6915,42.0342,0 75.6856,42.0448,0 75.6828,42.0535,0 75.6759,42.0657,0 75.6503,42.0839,0 75.6449,42.1088,0 75.6460,42.1468,0 75.6950,42.1870,0 75.7200,42.1858,0 75.7396,42.1867,0 75.7619,42.1935,0 75.7773,42.2021,0 75.7878,42.2096,0 75.7916,42.2278,0 75.8228,42.2409,0 75.8520,42.2652,0 75.8621,42.2850,0 75.8743,42.2959,0 75.8851,42.3062,0 75.9228,42.2990,0 75.9626,42.2917,0 76.0451,42.2942,0 76.0984,42.2921,0 76.2330,42.3188,0 76.2779,42.3134,0 76.3636,42.3188,0 76.3962,42.3180,0 76.4250,42.3153,0 76.5125,42.2909,0 76.5678,42.2606,0 76.5845,42.2414,0 76.6415,42.2104,0 76.6756,42.1926,0 76.7282,42.1599,0 76.7563,42.1420,0 76.7779,42.1353,0 76.8143,42.1391,0 76.8473,42.1328,0 76.8845,42.1260,0 76.9304,42.1138,0 76.9555,42.1125,0 76.9704,42.1156,0 76.9879,42.1207,0 76.9879,42.1207,0</coordinates></LineString></Placemark>
<Placemark><name>J12 - Bokonbaevo - Skazka - Jeti-Oguz (~123 km)</name><styleUrl>#road</styleUrl><LineString><tessellate>1</tessellate><coordinates>76.9879,42.1207,0 76.9893,42.1247,0 76.9934,42.1259,0 77.0011,42.1260,0 77.0274,42.1459,0 77.0392,42.1522,0 77.0554,42.1550,0 77.0637,42.1565,0 77.0726,42.1585,0 77.0882,42.1536,0 77.1035,42.1564,0 77.1214,42.1570,0 77.1357,42.1563,0 77.1508,42.1584,0 77.1652,42.1643,0 77.1701,42.1667,0 77.1881,42.1672,0 77.2350,42.1718,0 77.2461,42.1717,0 77.2657,42.1722,0 77.2828,42.1792,0 77.2929,42.1797,0 77.3060,42.1785,0 77.3259,42.1803,0 77.3437,42.1764,0 77.3498,42.1748,0 77.3492,42.1730,0 77.3474,42.1670,0 77.3469,42.1640,0 77.3467,42.1648,0 77.3492,42.171,0 77.3494,42.1745,0 77.3493,42.1756,0 77.3591,42.1733,0 77.3771,42.1714,0 77.3887,42.1753,0 77.3947,42.1738,0 77.4028,42.1717,0 77.4159,42.1689,0 77.4401,42.1645,0 77.4712,42.1589,0 77.4977,42.1541,0 77.5177,42.1581,0 77.5208,42.1579,0 77.5258,42.1540,0 77.5282,42.1544,0 77.5292,42.1571,0 77.5321,42.1677,0 77.5406,42.1729,0 77.5611,42.1796,0 77.5669,42.1821,0 77.5729,42.1815,0 77.5854,42.1788,0 77.6139,42.1794,0 77.6309,42.1818,0 77.6317,42.1896,0 77.6395,42.1921,0 77.6419,42.1883,0 77.6446,42.1887,0 77.6459,42.1933,0 77.6529,42.1965,0 77.6594,42.1960,0 77.6764,42.2024,0 77.6849,42.2080,0 77.6922,42.2111,0 77.6996,42.2118,0 77.7137,42.2270,0 77.7189,42.2362,0 77.7259,42.2441,0 77.7531,42.2647,0 77.7721,42.2722,0 77.7860,42.2780,0 77.7949,42.2816,0 77.8224,42.2917,0 77.8522,42.3017,0 77.8697,42.3070,0 77.8783,42.3103,0 77.8904,42.3146,0 77.9020,42.3185,0 77.9170,42.3216,0 77.9384,42.3246,0 77.9796,42.3323,0 77.9852,42.3334,0 77.9897,42.3351,0 77.9952,42.3377,0 78.0039,42.3418,0 78.0127,42.3457,0 78.0168,42.3491,0 78.0220,42.3523,0 78.0404,42.3634,0 78.0855,42.3925,0 78.1478,42.4264,0 78.1645,42.4349,0 78.1815,42.4450,0 78.1948,42.4482,0 78.1991,42.4441,0 78.2059,42.4392,0 78.2119,42.4374,0 78.2253,42.4366,0</coordinates></LineString></Placemark>
<Placemark><name>J17 - Ak-Suu - Karakol (~13 km)</name><styleUrl>#road</styleUrl><LineString><tessellate>1</tessellate><coordinates>78.5292,42.4982,0 78.5290,42.4988,0 78.5289,42.4991,0 78.5286,42.5004,0 78.5283,42.5018,0 78.5281,42.5027,0 78.5279,42.5037,0 78.5275,42.5037,0 78.5271,42.5036,0 78.5264,42.5034,0 78.5251,42.5030,0 78.5241,42.5028,0 78.5239,42.5027,0 78.5232,42.5026,0 78.5215,42.5022,0 78.5199,42.5022,0 78.5178,42.5021,0 78.5169,42.5020,0 78.5160,42.5020,0 78.5142,42.5020,0 78.5122,42.5020,0 78.5116,42.5020,0 78.5094,42.5019,0 78.5086,42.5019,0 78.5079,42.5018,0 78.5078,42.5018,0 78.5060,42.5017,0 78.5051,42.5017,0 78.5039,42.5016,0 78.5027,42.5015,0 78.5012,42.5014,0 78.5001,42.5013,0 78.4982,42.5012,0 78.4941,42.5010,0 78.4930,42.5009,0 78.4910,42.5008,0 78.4903,42.5008,0 78.4894,42.5007,0 78.4884,42.5008,0 78.4870,42.5008,0 78.4862,42.5009,0 78.4803,42.5013,0 78.4786,42.5014,0 78.4779,42.5014,0 78.4665,42.4993,0 78.4569,42.4976,0 78.4566,42.4975,0 78.4534,42.4970,0 78.4361,42.4938,0 78.4314,42.4929,0 78.4298,42.4927,0 78.4252,42.4924,0 78.4211,42.4921,0 78.4208,42.4920,0 78.4183,42.4918,0 78.4173,42.4918,0 78.4170,42.4917,0 78.4168,42.4917,0 78.4162,42.4916,0 78.4158,42.4915,0 78.4155,42.4914,0 78.4141,42.4905,0 78.4134,42.4900,0 78.4133,42.4899,0 78.4126,42.4895,0 78.4111,42.4885,0 78.4101,42.4880,0 78.4091,42.4872,0 78.4083,42.4867,0 78.4075,42.4862,0 78.4062,42.4854,0 78.4061,42.4854,0 78.4059,42.4853,0 78.4058,42.4852,0 78.4056,42.4851,0 78.4042,42.4842,0 78.4031,42.4835,0 78.4027,42.4833,0 78.4016,42.4826,0 78.4004,42.4818,0 78.3990,42.4831,0 78.3977,42.4842,0 78.3964,42.4853,0 78.3952,42.4863,0 78.3938,42.4874,0 78.3925,42.4885,0 78.3935,42.4892,0 78.3941,42.4895,0 78.3936,42.4900,0 78.3936,42.4900,0 78.3938,42.4902,0 78.3938,42.4902,0</coordinates></LineString></Placemark>
<Placemark><name>J19 - Karakol - frontiere de Karkara - Kegen - Saty (~241 km)</name><styleUrl>#road</styleUrl><LineString><tessellate>1</tessellate><coordinates>78.3938,42.4902,0 78.3967,42.4942,0 78.3864,42.5026,0 78.3858,42.5171,0 78.3821,42.5317,0 78.3915,42.5626,0 78.3841,42.5947,0 78.3585,42.6814,0 78.3675,42.7168,0 78.3584,42.7292,0 78.3469,42.7380,0 78.3684,42.7423,0 78.4335,42.7478,0 78.4818,42.7718,0 78.5040,42.7820,0 78.5420,42.7801,0 78.6001,42.7778,0 78.6482,42.7622,0 78.6950,42.7539,0 78.7274,42.7492,0 78.7886,42.7273,0 78.8393,42.7385,0 78.8509,42.7403,0 78.8618,42.7386,0 78.8739,42.7381,0 78.8947,42.7388,0 78.9048,42.7364,0 78.9177,42.7352,0 78.9255,42.7376,0 78.9377,42.7373,0 78.9517,42.7430,0 78.9667,42.7472,0 79.0050,42.7545,0 79.0475,42.7619,0 79.0770,42.7693,0 79.1099,42.7658,0 79.1435,42.7680,0 79.2133,42.8297,0 79.2441,42.8873,0 79.2340,42.9827,0 79.2308,43.0149,0 79.2192,43.0211,0 79.1469,42.9931,0 79.1387,42.9565,0 79.0877,42.9788,0 79.0460,42.9692,0 79.0281,42.9878,0 78.9976,42.9948,0 78.9647,42.9802,0 78.9450,42.9667,0 78.9210,42.9610,0 78.9139,42.9620,0 78.9030,42.9621,0 78.8964,42.9693,0 78.8851,42.9734,0 78.8645,42.9825,0 78.8528,42.9993,0 78.8399,43.0037,0 78.8269,43.0101,0 78.8082,43.0184,0 78.8071,43.0093,0 78.7977,43.0156,0 78.7872,43.0199,0 78.7735,43.0269,0 78.7617,43.0331,0 78.7558,43.0289,0 78.7451,43.0186,0 78.7467,43.0303,0 78.7453,43.0356,0 78.7483,43.0407,0 78.7165,43.0370,0 78.6764,43.0448,0 78.6419,43.0454,0 78.6285,43.0495,0 78.6125,43.0506,0 78.5994,43.0506,0 78.5866,43.0501,0 78.5750,43.0463,0 78.5634,43.0528,0 78.5546,43.0582,0 78.5390,43.0679,0 78.5325,43.0675,0 78.5258,43.0588,0 78.5135,43.0425,0 78.5028,43.0517,0 78.4860,43.0567,0 78.4684,43.0769,0 78.4372,43.0753,0 78.4133,43.0697,0 78.3844,43.0703,0 78.3559,43.0653,0 78.3437,43.0491,0 78.3451,43.0361,0 78.3449,43.0322,0</coordinates></LineString></Placemark>
<Placemark><name>J20 - Saty - canyon de Charyn - Almaty (~316 km)</name><styleUrl>#road</styleUrl><LineString><tessellate>1</tessellate><coordinates>78.3449,43.0322,0 78.3442,43.0479,0 78.3598,43.0665,0 78.4072,43.0695,0 78.4346,43.0750,0 78.4708,43.0729,0 78.4922,43.0522,0 78.5131,43.0422,0 78.5280,43.0613,0 78.5348,43.0686,0 78.5461,43.0629,0 78.5641,43.0530,0 78.5784,43.0452,0 78.5973,43.0511,0 78.6127,43.0508,0 78.6382,43.0835,0 78.6757,43.2121,0 78.7674,43.2351,0 78.8574,43.2502,0 78.8765,43.2474,0 78.8976,43.2540,0 78.9066,43.2532,0 78.9326,43.2929,0 78.9319,43.3180,0 78.9350,43.3383,0 78.9311,43.3476,0 79.0135,43.3639,0 79.0493,43.3606,0 79.0485,43.3559,0 79.0534,43.3542,0 79.0609,43.3535,0 79.0677,43.3530,0 79.0745,43.3510,0 79.0779,43.3508,0 79.0797,43.3513,0 79.0767,43.3508,0 79.0728,43.3516,0 79.0659,43.3533,0 79.0578,43.3541,0 79.0512,43.3543,0 79.0520,43.3564,0 79.0439,43.3623,0 78.9929,43.3596,0 78.9279,43.3475,0 78.6731,43.4484,0 78.6414,43.4660,0 78.6226,43.5035,0 78.6116,43.5239,0 78.5975,43.5442,0 78.4256,43.5555,0 78.3423,43.5813,0 78.3128,43.6059,0 78.2766,43.5921,0 78.2518,43.5829,0 78.2184,43.5835,0 78.1869,43.5786,0 78.1252,43.5759,0 78.0728,43.5790,0 78.0079,43.5785,0 77.8817,43.5654,0 77.7637,43.5493,0 77.7161,43.5420,0 77.6588,43.5342,0 77.6265,43.5334,0 77.5834,43.5302,0 77.5490,43.5275,0 77.4376,43.5067,0 77.3907,43.5046,0 77.3508,43.4933,0 77.3213,43.4783,0 77.2703,43.4633,0 77.2455,43.4609,0 77.1847,43.4580,0 77.1494,43.4610,0 77.1125,43.4630,0 77.0510,43.4702,0 77.0313,43.4684,0 76.9879,43.4368,0 76.9716,43.3912,0 76.9435,43.3642,0 76.9365,43.3499,0 76.9327,43.3410,0 76.9317,43.3259,0 76.9395,43.3140,0 76.9401,43.3008,0 76.9401,43.2924,0 76.9374,43.2848,0 76.9421,43.2773,0 76.9451,43.2744,0 76.9455,43.2646,0 76.9468,43.2540,0 76.9478,43.2463,0 76.9488,43.2391,0 76.9450,43.2382,0</coordinates></LineString></Placemark>
</Folder>
<Folder><name>A pied et a cheval (traces indicatifs - naviguer au GPX)</name>
<Placemark><name>J4-J5 - A CHEVAL : Kyzart - Kilemche - col - lac Song-Kul</name><styleUrl>#trek</styleUrl><LineString><tessellate>1</tessellate><coordinates>75.295,42.083,0 75.28,42.055,0 75.265,42.02,0 75.255,41.985,0 75.245,41.955,0 75.23,41.93,0 75.19,41.912,0 75.145,41.905,0</coordinates></LineString></Placemark>
<Placemark><name>J6 - A CHEVAL : rive nord de Song-Kul (boucle)</name><styleUrl>#trek</styleUrl><LineString><tessellate>1</tessellate><coordinates>75.145,41.905,0 75.09,41.912,0 75.03,41.918,0 74.97,41.92,0</coordinates></LineString></Placemark>
<Placemark><name>J8 - Option col de Tash Rabat 3968 m (A/R)</name><styleUrl>#trek</styleUrl><LineString><tessellate>1</tessellate><coordinates>75.284,40.823,0 75.298,40.806,0 75.318,40.792,0</coordinates></LineString></Placemark>
<Placemark><name>J9 - Marche Kok-Kyya - lac Kel-Suu</name><styleUrl>#trek</styleUrl><LineString><tessellate>1</tessellate><coordinates>76.28,40.56,0 76.3,40.52,0 76.32,40.487,0 76.345,40.455,0</coordinates></LineString></Placemark>
<Placemark><name>J13 - Trek 1/5 : Kok-Jaiyk - camp sous le col Telety</name><styleUrl>#trek</styleUrl><LineString><tessellate>1</tessellate><coordinates>78.225,42.437,0 78.23,42.4,0 78.25,42.37,0 78.28,42.355,0 78.315,42.352,0</coordinates></LineString></Placemark>
<Placemark><name>J14 - Trek 2/5 : col Telety 3759 m - pont de la Telety</name><styleUrl>#trek</styleUrl><LineString><tessellate>1</tessellate><coordinates>78.315,42.352,0 78.343,42.362,0 78.37,42.365,0 78.4,42.375,0 78.44,42.38,0</coordinates></LineString></Placemark>
<Placemark><name>J15 - Trek 3/5 : vallee Karakol - Sirota - lac Ala-Kul</name><styleUrl>#trek</styleUrl><LineString><tessellate>1</tessellate><coordinates>78.44,42.38,0 78.452,42.372,0 78.468,42.356,0 78.49,42.35,0 78.515,42.346,0</coordinates></LineString></Placemark>
<Placemark><name>J16 - Trek 4/5 : col Ala-Kul 3860 m - Altyn Arashan</name><styleUrl>#trek</styleUrl><LineString><tessellate>1</tessellate><coordinates>78.515,42.346,0 78.54,42.352,0 78.548,42.35,0 78.565,42.348,0 78.59,42.355,0 78.607,42.372,0</coordinates></LineString></Placemark>
<Placemark><name>J17 - Trek 5/5 : Altyn Arashan - Ak-Suu</name><styleUrl>#trek</styleUrl><LineString><tessellate>1</tessellate><coordinates>78.607,42.372,0 78.59,42.42,0 78.56,42.46,0 78.528,42.498,0</coordinates></LineString></Placemark>
<Placemark><name>J20 - Balade lac Kolsai-1</name><styleUrl>#trek</styleUrl><LineString><tessellate>1</tessellate><coordinates>78.373,43.028,0 78.34,43,0 78.32,42.97,0</coordinates></LineString></Placemark>
</Folder>
<Folder><name>Nuits</name>
<Placemark><name>J1 - Bichkek (auberge)</name><styleUrl>#night</styleUrl><Point><coordinates>74.5698,42.8746,0</coordinates></Point></Placemark>
<Placemark><name>J2 - Cholpon-Ata (finale Nomad Games)</name><styleUrl>#night</styleUrl><Point><coordinates>77.083,42.649,0</coordinates></Point></Placemark>
<Placemark><name>J3 - Kochkor (homestay CBT)</name><styleUrl>#night</styleUrl><Point><coordinates>75.755,42.216,0</coordinates></Point></Placemark>
<Placemark><name>J4 - Jailoo de Kilemche (yourte)</name><styleUrl>#night</styleUrl><Point><coordinates>75.26,42,0</coordinates></Point></Placemark>
<Placemark><name>J5-J6 - Song-Kul rive nord (yourtes)</name><styleUrl>#night</styleUrl><Point><coordinates>75.145,41.905,0</coordinates></Point></Placemark>
<Placemark><name>J7 et J10 - Naryn (guesthouse, banya)</name><styleUrl>#night</styleUrl><Point><coordinates>75.991,41.428,0</coordinates></Point></Placemark>
<Placemark><name>J8 - Tash Rabat (yourte a poele)</name><styleUrl>#night</styleUrl><Point><coordinates>75.284,40.823,0</coordinates></Point></Placemark>
<Placemark><name>J9 - Kok-Kyya / Kel-Suu (yourte)</name><styleUrl>#night</styleUrl><Point><coordinates>76.28,40.56,0</coordinates></Point></Placemark>
<Placemark><name>J11 - Bokonbaevo (guesthouse ou plage)</name><styleUrl>#night</styleUrl><Point><coordinates>76.988,42.121,0</coordinates></Point></Placemark>
<Placemark><name>J12 - Kok-Jaiyk (tente/yourte)</name><styleUrl>#night</styleUrl><Point><coordinates>78.27,42.34,0</coordinates></Point></Placemark>
<Placemark><name>J13 - Camp sous le col Telety (tente)</name><styleUrl>#night</styleUrl><Point><coordinates>78.315,42.352,0</coordinates></Point></Placemark>
<Placemark><name>J14 - Pont de la Telety (tente)</name><styleUrl>#night</styleUrl><Point><coordinates>78.44,42.38,0</coordinates></Point></Placemark>
<Placemark><name>J15 - Lac Ala-Kul 3532 m (tente, gel)</name><styleUrl>#night</styleUrl><Point><coordinates>78.515,42.346,0</coordinates></Point></Placemark>
<Placemark><name>J16 - Altyn Arashan (sources chaudes)</name><styleUrl>#night</styleUrl><Point><coordinates>78.607,42.372,0</coordinates></Point></Placemark>
<Placemark><name>J17-J18 - Karakol (guesthouse)</name><styleUrl>#night</styleUrl><Point><coordinates>78.394,42.49,0</coordinates></Point></Placemark>
<Placemark><name>J19 - Saty, Kazakhstan (guesthouse)</name><styleUrl>#night</styleUrl><Point><coordinates>78.373,43.028,0</coordinates></Point></Placemark>
<Placemark><name>J20-J21 - Almaty (hotel, bains Arasan)</name><styleUrl>#night</styleUrl><Point><coordinates>76.945,43.238,0</coordinates></Point></Placemark>
</Folder>
</Document></kml>
